QIANFAN-57              
1 62787U 25016C   25217.65609569  .00000123  00000+0  17148-3 0  9996
2 62787  88.9850 116.5096 0002315  91.3357 268.8060 13.50957277 29778
QIANFAN-58              
1 62788U 25016D   25217.62733053  .00000122  00000+0  17093-3 0  9998
2 62788  88.9819 116.3844 0014635   4.9127 355.2165 13.50956419 29815
QIANFAN-59              
1 62789U 25016E   25217.63971659  .00000131  00000+0  18417-3 0  9997
2 62789  88.9843 116.4230 0015636   7.4521 352.6860 13.50960794 29815
QIANFAN-60              
1 62790U 25016F   25217.63128925  .00000126  00000+0  17604-3 0  9990
2 62790  88.9824 116.4279 0016028   5.1143 355.0169 13.50957852 29797
QIANFAN-61              
1 62791U 25016G   25217.64384840  .00000125  00000+0  17501-3 0  9997
2 62791  88.9892 116.4966 0015415   4.1359 355.9917 13.50958621 29811
QIANFAN-62              
1 62792U 25016H   25217.64778775  .00000124  00000+0  17398-3 0  9995
2 62792  88.9838 116.4344 0016825   3.7923 356.3352 13.50957626 29801
QIANFAN-63              
1 62793U 25016J   25217.66015177  .00000127  00000+0  17779-3 0  9994
2 62793  88.9844 116.3732 0016778   8.1559 351.9862 13.50954697 29846
QIANFAN-64              
1 62794U 25016K   25217.65187881  .00000111  00000+0  15374-3 0  9998
2 62794  88.9831 116.3714 0014420   3.2605 356.8637 13.50957184 29830
